GPS BIIR-2  (PRN 13)    
1 24876C 97035A   21115.71090278 -.00000000  00000-0  00000-0 0  1156
2 24876  55.4674 171.9696 0047294  54.7375  60.9115  2.00562594    12
GPS BIIR-4  (PRN 20)    
1 26360C 00025A   21115.71090278 -.00000000  00000-0  00000-0 0  1159
2 26360  53.7379  96.1813 0060205 175.5694 318.6772  2.00792916    12
GPS BIIR-5  (PRN 28)    
1 26407C 00040A   21115.71090278  .00000000  00000-0  00000-0 0  1157
2 26407  55.7633 289.8276 0176637 283.1382 130.4391  2.00489008    12
GPS BIIR-8  (PRN 16)    
1 27663C 03005A   21115.71090278  .00000000  00000-0  00000-0 0  1156
2 27663  55.8158 289.6230 0121108  37.7168 145.9447  2.00562341    11
GPS BIIR-9  (PRN 21)    
1 27704C 03010A   21115.71090278 -.00000000  00000-0  00000-0 0  1159
2 27704  54.8265  40.2658 0243828 293.8619 102.6407  2.00561079    13
GPS BIIR-10 (PRN 22)    
1 28129C 03058A   21115.71090278 -.00000000  00000-0  00000-0 0  1153
2 28129  53.5487  98.8417 0072496 302.3696  37.1586  2.00577136    12
GPS BIIR-11 (PRN 19)    
1 28190C 04009A   21115.71090278  .00000000  00000-0  00000-0 0  1157
2 28190  56.2017 350.4911 0090084 104.5289 234.7217  2.00568934    10
GPS BIIR-13 (PRN 02)    
1 28474C 04045A   21115.71090278 -.00000000  00000-0  00000-0 0  1153
2 28474  55.1624  40.2497 0205112 272.7279 342.2779  2.00565124    13
GPS BIIRM-1 (PRN 17)    
1 28874C 05038A   21115.71090278  .00000000  00000-0  00000-0 0  1159
2 28874  56.2878 347.9017 0135764 270.2100  91.7216  2.00574111    14
GPS BIIRM-2 (PRN 31)    
1 29486C 06042A   21115.71090278  .00000000  00000-0  00000-0 0  1155
2 29486  54.7795 225.9095 0098859  13.5782 262.9578  2.00551644    12
GPS BIIRM-3 (PRN 12)    
1 29601C 06052A   21115.71090278  .00000000  00000-0  00000-0 0  1155
2 29601  55.8104 288.5482 0082505  68.3660 251.1285  2.00554279    18
GPS BIIRM-4 (PRN 15)    
1 32260C 07047A   21115.71090278 -.00000000  00000-0  00000-0 0  1156
2 32260  53.2244 157.8540 0129098  55.4076  40.5713  2.00571236    18
GPS BIIRM-5 (PRN 29)    
1 32384C 07062A   21115.71090278  .00000000  00000-0  00000-0 0  1159
2 32384  56.3932 348.6120 0015795 125.6013  97.7624  2.00566561    16
GPS BIIRM-6 (PRN 07)    
1 32711C 08012A   21115.71090278  .00000000  00000-0  00000-0 0  1159
2 32711  54.5320 224.9397 0149286 226.5441 293.5394  2.00552907    11
GPS BIIRM-8 (PRN 05)    
1 35752C 09043A   21115.71090278 -.00000000  00000-0  00000-0 0  1153
2 35752  54.7768 102.3901 0058668  49.1737 125.8892  2.00541376    15
GPS BIIF-1  (PRN 25)    
1 36585C 10022A   21115.71090278  .00000000  00000-0  00000-0 0  1156
2 36585  55.0850 284.3608 0097364  54.4118 234.0561  2.00567640    17
GPS BIIF-2  (PRN 01)    
1 37753C 11036A   21115.71090278 -.00000000  00000-0  00000-0 0  1151
2 37753  56.3829  45.0141 0105964  46.9665 327.8815  2.00562692    13
GPS BIIF-3  (PRN 24)    
1 38833C 12053A   21115.71090278  .00000000  00000-0  00000-0 0  1150
2 38833  53.5797 220.4853 0109038  41.4440 348.4426  2.00555961    10
GPS BIIF-4  (PRN 27)    
1 39166C 13023A   21115.71090278  .00000000  00000-0  00000-0 0  1158
2 39166  55.9343 344.4345 0092582  33.8556  92.4753  2.00562800    13
GPS BIIF-5  (PRN 30)    
1 39533C 14008A   21115.71090278  .00000000  00000-0  00000-0 0  1150
2 39533  53.6851 225.9509 0051980 201.8179 283.0600  2.00558295    12
GPS BIIF-6  (PRN 06)    
1 39741C 14026A   21115.71090278 -.00000000  00000-0  00000-0 0  1152
2 39741  56.3521  44.5412 0024746 300.3421 343.9812  2.00554831    13
GPS BIIF-7  (PRN 09)    
1 40105C 14045A   21115.71090278 -.00000000  00000-0  00000-0 0  1159
2 40105  54.6187 163.4818 0016573 107.1649 117.2611  2.00548719    10
GPS BIIF-8  (PRN 03)    
1 40294C 14068A   21115.71090278 -.00000000  00000-0  00000-0 0  1153
2 40294  55.5245 104.4770 0032602  44.5252 268.5575  2.00570780    13
GPS BIIF-9  (PRN 26)    
1 40534C 15013A   21115.71090278  .00000000  00000-0  00000-0 0  1150
2 40534  53.9928 281.9847 0057420  15.2303 195.4199  2.00549138    16
GPS BIIF-10 (PRN 08)    
1 40730C 15033A   21115.71090278  .00000000  00000-0  00000-0 0  1150
2 40730  55.4433 343.4611 0063447 359.9189  96.8082  2.00573505    11
GPS BIIF-11 (PRN 10)    
1 41019C 15062A   21115.71090278 -.00000000  00000-0  00000-0 0  1154
2 41019  55.5176 104.3110 0067248 214.8628 208.0909  2.00563432    18
GPS BIIF-12 (PRN 32)    
1 41328C 16007A   21115.71090278 -.00000000  00000-0  00000-0 0  1157
2 41328  54.8470 164.0491 0050389 225.4687 132.0555  2.00564436    14
GPS BIII-1  (PRN 04)    
1 43873C 18109A   21115.71090278 -.00000000  00000-0  00000-0 0  1159
2 43873  55.0282 166.3799 0012565 202.0354  50.3980  2.00553772    12
GPS BIII-2  (PRN 18)    
1 44506C 19056A   21115.71090278 -.00000000  00000-0  00000-0 0  1155
2 44506  55.4486  45.7142 0012879 179.0137 330.5789  2.00564309    16
GPS BIII-3  (PRN 23)    
1 45854C 20041A   21115.71090278 -.00000000  00000-0  00000-0 0  1158
2 45854  55.2302 102.9754 0010163 158.2088 293.7154  2.00565932    10
GPS BIII-4  (PRN 14)    
1 46826C 20078A   21115.71090278  .00000000  00000-0  00000-0 0  1157
2 46826  54.8644 287.0221 0005170 167.2990 257.0692  2.00554531    15
